[
  {
    "OBJECT_NAME": "STARLINK-34097",
    "OBJECT_ID": "25095P",
    "EPOCH": "2025-11-10T20:18:00.524160",
    "MEAN_MOTION": 15.27609491,
    "ECCENTRICITY": 0.000321,
    "INCLINATION": 43.0041,
    "RA_OF_ASC_NODE": 127.256,
    "ARG_OF_PERICENTER": 274.0,
    "MEAN_ANOMALY": 86.0484,
    "EPHEMERIS_TYPE": 0,
    "CLASSIFICATION_TYPE": "U",
    "NORAD_CAT_ID": 63903,
    "ELEMENT_SET_NO": 999,
    "REV_AT_EPOCH": 2960,
    "BSTAR": 0.0014796000000000002,
    "MEAN_MOTION_DOT": 0.00040719,
    "MEAN_MOTION_DDOT": 0.0,
    "TLE_LINE1": "1 63903U 25095P   25314.84583940  .00040719  00000+0  14796-2 0  9997",
    "TLE_LINE2": "2 63903  43.0041 127.2560 0003210 274.0000  86.0484 15.27609491 29608",
    "COMMENT": "Grouped by shell and plane from TLE"
  },
  {
    "OBJECT_NAME": "STARLINK-34092",
    "OBJECT_ID": "25095Q",
    "EPOCH": "2025-11-11T04:51:21.000096",
    "MEAN_MOTION": 15.27568309,
    "ECCENTRICITY": 5.63e-05,
    "INCLINATION": 43.0012,
    "RA_OF_ASC_NODE": 125.636,
    "ARG_OF_PERICENTER": 252.4251,
    "MEAN_ANOMALY": 107.654,
    "EPHEMERIS_TYPE": 0,
    "CLASSIFICATION_TYPE": "U",
    "NORAD_CAT_ID": 63904,
    "ELEMENT_SET_NO": 999,
    "REV_AT_EPOCH": 2965,
    "BSTAR": 0.0011692,
    "MEAN_MOTION_DOT": 0.00032039,
    "MEAN_MOTION_DDOT": 0.0,
    "TLE_LINE1": "1 63904U 25095Q   25315.20232639  .00032039  00000+0  11692-2 0  9993",
    "TLE_LINE2": "2 63904  43.0012 125.6360 0000563 252.4251 107.6540 15.27568309 29653",
    "COMMENT": "Grouped by shell and plane from TLE"
  },
  {
    "OBJECT_NAME": "STARLINK-34114",
    "OBJECT_ID": "25095R",
    "EPOCH": "2025-11-11T05:02:27.735936",
    "MEAN_MOTION": 15.27633579,
    "ECCENTRICITY": 0.0002836,
    "INCLINATION": 43.0025,
    "RA_OF_ASC_NODE": 125.6937,
    "ARG_OF_PERICENTER": 271.8325,
    "MEAN_ANOMALY": 88.2202,
    "EPHEMERIS_TYPE": 0,
    "CLASSIFICATION_TYPE": "U",
    "NORAD_CAT_ID": 63905,
    "ELEMENT_SET_NO": 999,
    "REV_AT_EPOCH": 2965,
    "BSTAR": 0.0015776000000000002,
    "MEAN_MOTION_DOT": 0.0004348,
    "MEAN_MOTION_DDOT": 0.0,
    "TLE_LINE1": "1 63905U 25095R   25315.21004324  .00043480  00000+0  15776-2 0  9992",
    "TLE_LINE2": "2 63905  43.0025 125.6937 0002836 271.8325  88.2202 15.27633579 29651",
    "COMMENT": "Grouped by shell and plane from TLE"
  },
  {
    "OBJECT_NAME": "STARLINK-33770",
    "OBJECT_ID": "25095S",
    "EPOCH": "2025-11-11T03:53:59.255232",
    "MEAN_MOTION": 15.27598774,
    "ECCENTRICITY": 0.0001008,
    "INCLINATION": 42.997,
    "RA_OF_ASC_NODE": 125.3297,
    "ARG_OF_PERICENTER": 265.9176,
    "MEAN_ANOMALY": 94.1561,
    "EPHEMERIS_TYPE": 0,
    "CLASSIFICATION_TYPE": "U",
    "NORAD_CAT_ID": 63906,
    "ELEMENT_SET_NO": 999,
    "REV_AT_EPOCH": 2965,
    "BSTAR": 0.00085525,
    "MEAN_MOTION_DOT": 0.00023361,
    "MEAN_MOTION_DDOT": 0.0,
    "TLE_LINE1": "1 63906U 25095S   25315.16249138  .00023361  00000+0  85525-3 0  9997",
    "TLE_LINE2": "2 63906  42.9970 125.3297 0001008 265.9176  94.1561 15.27598774 29654",
    "COMMENT": "Grouped by shell and plane from TLE"
  },
  {
    "OBJECT_NAME": "STARLINK-34106",
    "OBJECT_ID": "25095T",
    "EPOCH": "2025-11-10T18:23:29.615136",
    "MEAN_MOTION": 15.27594233,
    "ECCENTRICITY": 0.0001117,
    "INCLINATION": 43.0006,
    "RA_OF_ASC_NODE": 127.5122,
    "ARG_OF_PERICENTER": 270.7964,
    "MEAN_ANOMALY": 89.276,
    "EPHEMERIS_TYPE": 0,
    "CLASSIFICATION_TYPE": "U",
    "NORAD_CAT_ID": 63907,
    "ELEMENT_SET_NO": 999,
    "REV_AT_EPOCH": 2959,
    "BSTAR": 0.001077,
    "MEAN_MOTION_DOT": 0.00029505,
    "MEAN_MOTION_DDOT": 0.0,
    "TLE_LINE1": "1 63907U 25095T   25314.76631499  .00029505  00000+0  10770-2 0  9993",
    "TLE_LINE2": "2 63907  43.0006 127.5122 0001117 270.7964  89.2760 15.27594233 29593",
    "COMMENT": "Grouped by shell and plane from TLE"
  },
  {
    "OBJECT_NAME": "STARLINK-34083",
    "OBJECT_ID": "25095U",
    "EPOCH": "2025-11-11T04:56:54.125664",
    "MEAN_MOTION": 15.2760907,
    "ECCENTRICITY": 0.0001509,
    "INCLINATION": 43.0014,
    "RA_OF_ASC_NODE": 125.6645,
    "ARG_OF_PERICENTER": 274.4526,
    "MEAN_ANOMALY": 85.6153,
    "EPHEMERIS_TYPE": 0,
    "CLASSIFICATION_TYPE": "U",
    "NORAD_CAT_ID": 63908,
    "ELEMENT_SET_NO": 999,
    "REV_AT_EPOCH": 2965,
    "BSTAR": 0.0016898,
    "MEAN_MOTION_DOT": 0.00046574,
    "MEAN_MOTION_DDOT": 0.0,
    "TLE_LINE1": "1 63908U 25095U   25315.20618201  .00046574  00000+0  16898-2 0  9992",
    "TLE_LINE2": "2 63908  43.0014 125.6645 0001509 274.4526  85.6153 15.27609070 29651",
    "COMMENT": "Grouped by shell and plane from TLE"
  },
  {
    "OBJECT_NAME": "STARLINK-34066",
    "OBJECT_ID": "25095V",
    "EPOCH": "2025-11-11T04:36:33.507936",
    "MEAN_MOTION": 15.27587264,
    "ECCENTRICITY": 0.0001745,
    "INCLINATION": 42.9946,
    "RA_OF_ASC_NODE": 125.5619,
    "ARG_OF_PERICENTER": 54.0401,
    "MEAN_ANOMALY": 306.0612,
    "EPHEMERIS_TYPE": 0,
    "CLASSIFICATION_TYPE": "U",
    "NORAD_CAT_ID": 63909,
    "ELEMENT_SET_NO": 999,
    "REV_AT_EPOCH": 2965,
    "BSTAR": 0.0011989,
    "MEAN_MOTION_DOT": 0.00032884,
    "MEAN_MOTION_DDOT": 0.0,
    "TLE_LINE1": "1 63909U 25095V   25315.19205449  .00032884  00000+0  11989-2 0  9992",
    "TLE_LINE2": "2 63909  42.9946 125.5619 0001745  54.0401 306.0612 15.27587264 29650",
    "COMMENT": "Grouped by shell and plane from TLE"
  },
  {
    "OBJECT_NAME": "STARLINK-34071",
    "OBJECT_ID": "25095W",
    "EPOCH": "2025-11-10T20:55:00.452064",
    "MEAN_MOTION": 15.2761371,
    "ECCENTRICITY": 0.0002039,
    "INCLINATION": 43.005,
    "RA_OF_ASC_NODE": 127.457,
    "ARG_OF_PERICENTER": 279.214,
    "MEAN_ANOMALY": 80.8481,
    "EPHEMERIS_TYPE": 0,
    "CLASSIFICATION_TYPE": "U",
    "NORAD_CAT_ID": 63910,
    "ELEMENT_SET_NO": 999,
    "REV_AT_EPOCH": 2960,
    "BSTAR": 0.001106,
    "MEAN_MOTION_DOT": 0.00030331,
    "MEAN_MOTION_DDOT": 0.0,
    "TLE_LINE1": "1 63910U 25095W   25314.87153301  .00030331  00000+0  11060-2 0  9992",
    "TLE_LINE2": "2 63910  43.0050 127.4570 0002039 279.2140  80.8481 15.27613710 29607",
    "COMMENT": "Grouped by shell and plane from TLE"
  },
  {
    "OBJECT_NAME": "STARLINK-34038",
    "OBJECT_ID": "25095X",
    "EPOCH": "2025-11-10T20:34:39.265824",
    "MEAN_MOTION": 15.27609085,
    "ECCENTRICITY": 0.0001637,
    "INCLINATION": 43.0004,
    "RA_OF_ASC_NODE": 127.345,
    "ARG_OF_PERICENTER": 278.9652,
    "MEAN_ANOMALY": 81.1014,
    "EPHEMERIS_TYPE": 0,
    "CLASSIFICATION_TYPE": "U",
    "NORAD_CAT_ID": 63911,
    "ELEMENT_SET_NO": 999,
    "REV_AT_EPOCH": 2960,
    "BSTAR": 0.001043,
    "MEAN_MOTION_DOT": 0.00028577,
    "MEAN_MOTION_DDOT": 0.0,
    "TLE_LINE1": "1 63911U 25095X   25314.85739891  .00028577  00000+0  10430-2 0  9994",
    "TLE_LINE2": "2 63911  43.0004 127.3450 0001637 278.9652  81.1014 15.27609085 29606",
    "COMMENT": "Grouped by shell and plane from TLE"
  },
  {
    "OBJECT_NAME": "STARLINK-34031",
    "OBJECT_ID": "25095Y",
    "EPOCH": "2025-11-11T04:30:59.263488",
    "MEAN_MOTION": 15.2761456,
    "ECCENTRICITY": 0.0001141,
    "INCLINATION": 43.0026,
    "RA_OF_ASC_NODE": 125.5278,
    "ARG_OF_PERICENTER": 289.6982,
    "MEAN_ANOMALY": 70.3746,
    "EPHEMERIS_TYPE": 0,
    "CLASSIFICATION_TYPE": "U",
    "NORAD_CAT_ID": 63912,
    "ELEMENT_SET_NO": 999,
    "REV_AT_EPOCH": 2965,
    "BSTAR": 0.0010686,
    "MEAN_MOTION_DOT": 0.00029291,
    "MEAN_MOTION_DDOT": 0.0,
    "TLE_LINE1": "1 63912U 25095Y   25315.18818592  .00029291  00000+0  10686-2 0  9995",
    "TLE_LINE2": "2 63912  43.0026 125.5278 0001141 289.6982  70.3746 15.27614560 29655",
    "COMMENT": "Grouped by shell and plane from TLE"
  },
  {
    "OBJECT_NAME": "STARLINK-34070",
    "OBJECT_ID": "25095Z",
    "EPOCH": "2025-11-11T04:19:54.096672",
    "MEAN_MOTION": 15.27593304,
    "ECCENTRICITY": 4.04e-05,
    "INCLINATION": 42.9914,
    "RA_OF_ASC_NODE": 125.4693,
    "ARG_OF_PERICENTER": 29.8624,
    "MEAN_ANOMALY": 330.225,
    "EPHEMERIS_TYPE": 0,
    "CLASSIFICATION_TYPE": "U",
    "NORAD_CAT_ID": 63913,
    "ELEMENT_SET_NO": 999,
    "REV_AT_EPOCH": 2965,
    "BSTAR": 0.0013076,
    "MEAN_MOTION_DOT": 0.0003591,
    "MEAN_MOTION_DDOT": 0.0,
    "TLE_LINE1": "1 63913U 25095Z   25315.18048723  .00035910  00000+0  13076-2 0  9998",
    "TLE_LINE2": "2 63913  42.9914 125.4693 0000404  29.8624 330.2250 15.27593304 29658",
    "COMMENT": "Grouped by shell and plane from TLE"
  },
  {
    "OBJECT_NAME": "STARLINK-34068",
    "OBJECT_ID": "25095AA",
    "EPOCH": "2025-11-10T21:48:28.793376",
    "MEAN_MOTION": 15.27592573,
    "ECCENTRICITY": 0.0001492,
    "INCLINATION": 42.9977,
    "RA_OF_ASC_NODE": 126.8641,
    "ARG_OF_PERICENTER": 263.1025,
    "MEAN_ANOMALY": 96.9656,
    "EPHEMERIS_TYPE": 0,
    "CLASSIFICATION_TYPE": "U",
    "NORAD_CAT_ID": 63914,
    "ELEMENT_SET_NO": 999,
    "REV_AT_EPOCH": 2961,
    "BSTAR": 0.0032857999999999997,
    "MEAN_MOTION_DOT": 0.00091317,
    "MEAN_MOTION_DDOT": 0.0,
    "TLE_LINE1": "1 63914U 25095AA  25314.90866659  .00091317  00000+0  32858-2 0  9996",
    "TLE_LINE2": "2 63914  42.9977 126.8641 0001492 263.1025  96.9656 15.27592573 29611",
    "COMMENT": "Grouped by shell and plane from TLE"
  },
  {
    "OBJECT_NAME": "STARLINK-34076",
    "OBJECT_ID": "25095AB",
    "EPOCH": "2025-11-11T04:14:19.796928",
    "MEAN_MOTION": 15.27628036,
    "ECCENTRICITY": 0.0001718,
    "INCLINATION": 43.0007,
    "RA_OF_ASC_NODE": 125.4366,
    "ARG_OF_PERICENTER": 277.4033,
    "MEAN_ANOMALY": 82.6623,
    "EPHEMERIS_TYPE": 0,
    "CLASSIFICATION_TYPE": "U",
    "NORAD_CAT_ID": 63915,
    "ELEMENT_SET_NO": 999,
    "REV_AT_EPOCH": 2965,
    "BSTAR": 0.0018869,
    "MEAN_MOTION_DOT": 0.00052107,
    "MEAN_MOTION_DDOT": 0.0,
    "TLE_LINE1": "1 63915U 25095AB  25315.17661802  .00052107  00000+0  18869-2 0  9990",
    "TLE_LINE2": "2 63915  43.0007 125.4366 0001718 277.4033  82.6623 15.27628036 29659",
    "COMMENT": "Grouped by shell and plane from TLE"
  }
]